[{"OBJECT_NAME":"STARLINK-31900","OBJECT_ID":"2024-106W","EPOCH":"2026-03-09T23:56:30.971616","MEAN_MOTION":15.27581578,"ECCENTRICITY":0.00015774,"INCLINATION":43.0024,"RA_OF_ASC_NODE":330.459,"ARG_OF_PERICENTER":255.2584,"MEAN_ANOMALY":104.8093,"EPHEMERIS_TYPE":0,"CLASSIFICATION_TYPE":"U","NORAD_CAT_ID":59942,"ELEMENT_SET_NO":999,"REV_AT_EPOCH":10057,"BSTAR":-5.682209e-5,"MEAN_MOTION_DOT":-1.826e-5,"MEAN_MOTION_DDOT":0},{"OBJECT_NAME":"TEVEL2-8","OBJECT_ID":"2025-052AF","EPOCH":"2026-03-09T16:02:08.542752","MEAN_MOTION":15.28392908,"ECCENTRICITY":0.0008031,"INCLINATION":97.4055,"RA_OF_ASC_NODE":324.2923,"ARG_OF_PERICENTER":124.9191,"MEAN_ANOMALY":235.2804,"EPHEMERIS_TYPE":0,"CLASSIFICATION_TYPE":"U","NORAD_CAT_ID":63239,"ELEMENT_SET_NO":999,"REV_AT_EPOCH":5480,"BSTAR":0.00069303947,"MEAN_MOTION_DOT":0.0001913,"MEAN_MOTION_DDOT":0}]
